{
  "type": "FeatureCollection",
  "features": [
    {
      "type": "Feature",
      "properties": {
        "norad_id": 28890,
        "name": "BEIJING 1",
        "group": "dmc",
        "lat": 71.08955535714658,
        "lon": 80.95936964271942,
        "alt_km": 676.0490861420112,
        "timestamp": "2025-12-04T13:52:00.114593+00:00",
        "meta_object_name": "BEIJING 1",
        "meta_object_id": "2005-043A",
        "meta_epoch": "2025-12-04T08:36:39.275424",
        "meta_mean_motion": 14.63354201,
        "meta_eccentricity": 0.00148951,
        "meta_inclination": 98.265,
        "meta_ra_of_asc_node": 105.8463,
        "meta_arg_of_pericenter": 166.8039,
        "meta_mean_anomaly": 193.3555,
        "meta_ephemeris_type": 0,
        "meta_classification_type": "U",
        "meta_norad_cat_id": 28890,
        "meta_element_set_no": 999,
        "meta_rev_at_epoch": 7215,
        "meta_bstar": 0.00017880916,
        "meta_mean_motion_dot": 8.76e-06,
        "meta_mean_motion_ddot": 0,
        "tle_line1": "1 28890U 05043A   25338.35878791  .00000876  00000+0  17881-3 0  9996",
        "tle_line2": "2 28890  98.2650 105.8463 0014895 166.8039 193.3555 14.63354201 72151"
      },
      "geometry": {
        "type": "Point",
        "coordinates": [
          80.95936964271942,
          71.08955535714658
        ]
      }
    },
    {
      "type": "Feature",
      "properties": {
        "norad_id": 33320,
        "name": "HUANJING 1A (HJ-1A)",
        "group": "dmc",
        "lat": -53.09687361736575,
        "lon": 136.9021275453956,
        "alt_km": 640.1106190147284,
        "timestamp": "2025-12-04T13:52:00.114616+00:00",
        "meta_object_name": "HUANJING 1A (HJ-1A)",
        "meta_object_id": "2008-041A",
        "meta_epoch": "2025-12-04T07:57:37.473408",
        "meta_mean_motion": 14.83353044,
        "meta_eccentricity": 0.00206157,
        "meta_inclination": 97.6532,
        "meta_ra_of_asc_node": 326.9819,
        "meta_arg_of_pericenter": 60.5494,
        "meta_mean_anomaly": 299.7774,
        "meta_ephemeris_type": 0,
        "meta_classification_type": "U",
        "meta_norad_cat_id": 33320,
        "meta_element_set_no": 999,
        "meta_rev_at_epoch": 92951,
        "meta_bstar": 0.00042238216,
        "meta_mean_motion_dot": 3.424e-05,
        "meta_mean_motion_ddot": 0,
        "tle_line1": "1 33320U 08041A   25338.33168372  .00003424  00000+0  42238-3 0  9992",
        "tle_line2": "2 33320  97.6532 326.9819 0020615  60.5494 299.7774 14.83353044929511"
      },
      "geometry": {
        "type": "Point",
        "coordinates": [
          136.9021275453956,
          -53.09687361736575
        ]
      }
    },
    {
      "type": "Feature",
      "properties": {
        "norad_id": 33321,
        "name": "HUANJING 1B (HJ-1B)",
        "group": "dmc",
        "lat": 67.11211552369264,
        "lon": 169.47411393488005,
        "alt_km": 587.6987659199331,
        "timestamp": "2025-12-04T13:52:00.114630+00:00",
        "meta_object_name": "HUANJING 1B (HJ-1B)",
        "meta_object_id": "2008-041B",
        "meta_epoch": "2025-12-04T06:53:21.063840",
        "meta_mean_motion": 14.8278785,
        "meta_eccentricity": 0.00381676,
        "meta_inclination": 97.6396,
        "meta_ra_of_asc_node": 330.6581,
        "meta_arg_of_pericenter": 102.4885,
        "meta_mean_anomaly": 258.0604,
        "meta_ephemeris_type": 0,
        "meta_classification_type": "U",
        "meta_norad_cat_id": 33321,
        "meta_element_set_no": 999,
        "meta_rev_at_epoch": 92952,
        "meta_bstar": 0.00028057516,
        "meta_mean_motion_dot": 2.246e-05,
        "meta_mean_motion_ddot": 0,
        "tle_line1": "1 33321U 08041B   25338.28704935  .00002246  00000+0  28058-3 0  9993",
        "tle_line2": "2 33321  97.6396 330.6581 0038167 102.4885 258.0604 14.82787850929525"
      },
      "geometry": {
        "type": "Point",
        "coordinates": [
          169.47411393488005,
          67.11211552369264
        ]
      }
    },
    {
      "type": "Feature",
      "properties": {
        "norad_id": 33446,
        "name": "YAOGAN-4",
        "group": "dmc",
        "lat": 26.83875074370979,
        "lon": -95.27986969370912,
        "alt_km": 611.9422806194052,
        "timestamp": "2025-12-04T13:52:00.114642+00:00",
        "meta_object_name": "YAOGAN-4",
        "meta_object_id": "2008-061A",
        "meta_epoch": "2025-12-04T05:38:47.404896",
        "meta_mean_motion": 14.82640914,
        "meta_eccentricity": 0.00143182,
        "meta_inclination": 97.9169,
        "meta_ra_of_asc_node": 268.4187,
        "meta_arg_of_pericenter": 351.7897,
        "meta_mean_anomaly": 8.3079,
        "meta_ephemeris_type": 0,
        "meta_classification_type": "U",
        "meta_norad_cat_id": 33446,
        "meta_element_set_no": 999,
        "meta_rev_at_epoch": 91677,
        "meta_bstar": 0.00043161091,
        "meta_mean_motion_dot": 3.43e-05,
        "meta_mean_motion_ddot": 0,
        "tle_line1": "1 33446U 08061A   25338.23527089  .00003430  00000+0  43161-3 0  9999",
        "tle_line2": "2 33446  97.9169 268.4187 0014318 351.7897   8.3079 14.82640914916772"
      },
      "geometry": {
        "type": "Point",
        "coordinates": [
          -95.27986969370912,
          26.83875074370979
        ]
      }
    },
    {
      "type": "Feature",
      "properties": {
        "norad_id": 35681,
        "name": "DEIMOS-1",
        "group": "dmc",
        "lat": 23.22627152352656,
        "lon": 136.22653187294222,
        "alt_km": 644.32770044258,
        "timestamp": "2025-12-04T13:52:00.114653+00:00",
        "meta_object_name": "DEIMOS-1",
        "meta_object_id": "2009-041A",
        "meta_epoch": "2025-12-04T08:52:34.162176",
        "meta_mean_motion": 14.7493322,
        "meta_eccentricity": 0.0002689,
        "meta_inclination": 97.7146,
        "meta_ra_of_asc_node": 139.3633,
        "meta_arg_of_pericenter": 95.19,
        "meta_mean_anomaly": 264.9616,
        "meta_ephemeris_type": 0,
        "meta_classification_type": "U",
        "meta_norad_cat_id": 35681,
        "meta_element_set_no": 999,
        "meta_rev_at_epoch": 87816,
        "meta_bstar": 0.0002145842,
        "meta_mean_motion_dot": 1.394e-05,
        "meta_mean_motion_ddot": 0,
        "tle_line1": "1 35681U 09041A   25338.36983984  .00001394  00000+0  21458-3 0  9997",
        "tle_line2": "2 35681  97.7146 139.3633 0002689  95.1900 264.9616 14.74933220878165"
      },
      "geometry": {
        "type": "Point",
        "coordinates": [
          136.22653187294222,
          23.22627152352656
        ]
      }
    },
    {
      "type": "Feature",
      "properties": {
        "norad_id": 35683,
        "name": "UK-DMC 2",
        "group": "dmc",
        "lat": 18.73910920508926,
        "lon": 111.0268725987452,
        "alt_km": 643.4381499347401,
        "timestamp": "2025-12-04T13:52:00.114664+00:00",
        "meta_object_name": "UK-DMC 2",
        "meta_object_id": "2009-041C",
        "meta_epoch": "2025-12-04T08:53:55.830912",
        "meta_mean_motion": 14.75593799,
        "meta_eccentricity": 0.00013049,
        "meta_inclination": 97.8557,
        "meta_ra_of_asc_node": 113.5104,
        "meta_arg_of_pericenter": 102.4049,
        "meta_mean_anomaly": 257.7307,
        "meta_ephemeris_type": 0,
        "meta_classification_type": "U",
        "meta_norad_cat_id": 35683,
        "meta_element_set_no": 999,
        "meta_rev_at_epoch": 87783,
        "meta_bstar": 0.0003040417,
        "meta_mean_motion_dot": 2.025e-05,
        "meta_mean_motion_ddot": 0,
        "tle_line1": "1 35683U 09041C   25338.37078508  .00002025  00000+0  30404-3 0  9990",
        "tle_line2": "2 35683  97.8557 113.5104 0001304 102.4049 257.7307 14.75593799877834"
      },
      "geometry": {
        "type": "Point",
        "coordinates": [
          111.0268725987452,
          18.73910920508926
        ]
      }
    },
    {
      "type": "Feature",
      "properties": {
        "norad_id": 40715,
        "name": "DMC3-FM1",
        "group": "dmc",
        "lat": 39.48287303164395,
        "lon": 32.44145496948195,
        "alt_km": 612.4467830552576,
        "timestamp": "2025-12-04T13:52:00.114674+00:00",
        "meta_object_name": "DMC3-FM1",
        "meta_object_id": "2015-032A",
        "meta_epoch": "2025-12-04T06:46:18.511680",
        "meta_mean_motion": 14.85418216,
        "meta_eccentricity": 0.00052578,
        "meta_inclination": 97.6699,
        "meta_ra_of_asc_node": 205.7825,
        "meta_arg_of_pericenter": 351.4004,
        "meta_mean_anomaly": 8.7121,
        "meta_ephemeris_type": 0,
        "meta_classification_type": "U",
        "meta_norad_cat_id": 40715,
        "meta_element_set_no": 999,
        "meta_rev_at_epoch": 56097,
        "meta_bstar": 0.00019707997,
        "meta_mean_motion_dot": 1.647e-05,
        "meta_mean_motion_ddot": 0,
        "tle_line1": "1 40715U 15032A   25338.28215870  .00001647  00000+0  19708-3 0  9997",
        "tle_line2": "2 40715  97.6699 205.7825 0005257 351.4004   8.7121 14.85418216560976"
      },
      "geometry": {
        "type": "Point",
        "coordinates": [
          32.44145496948195,
          39.48287303164395
        ]
      }
    },
    {
      "type": "Feature",
      "properties": {
        "norad_id": 40716,
        "name": "DMC3-FM2",
        "group": "dmc",
        "lat": 19.437657844171994,
        "lon": -155.2225849311253,
        "alt_km": 608.7236326638631,
        "timestamp": "2025-12-04T13:52:00.114684+00:00",
        "meta_object_name": "DMC3-FM2",
        "meta_object_id": "2015-032B",
        "meta_epoch": "2025-12-04T07:18:42.987744",
        "meta_mean_motion": 14.85419661,
        "meta_eccentricity": 0.00059062,
        "meta_inclination": 97.6756,
        "meta_ra_of_asc_node": 207.242,
        "meta_arg_of_pericenter": 355.5347,
        "meta_mean_anomaly": 4.5815,
        "meta_ephemeris_type": 0,
        "meta_classification_type": "U",
        "meta_norad_cat_id": 40716,
        "meta_element_set_no": 999,
        "meta_rev_at_epoch": 56097,
        "meta_bstar": 0.00019725155,
        "meta_mean_motion_dot": 1.648e-05,
        "meta_mean_motion_ddot": 0,
        "tle_line1": "1 40716U 15032B   25338.30466421  .00001648  00000+0  19725-3 0  9991",
        "tle_line2": "2 40716  97.6756 207.2420 0005906 355.5347   4.5815 14.85419661560974"
      },
      "geometry": {
        "type": "Point",
        "coordinates": [
          -155.2225849311253,
          19.437657844171994
        ]
      }
    },
    {
      "type": "Feature",
      "properties": {
        "norad_id": 40717,
        "name": "DMC3-FM3",
        "group": "dmc",
        "lat": -80.48205664889439,
        "lon": -24.471931933375238,
        "alt_km": 619.810127419034,
        "timestamp": "2025-12-04T13:52:00.114695+00:00",
        "meta_object_name": "DMC3-FM3",
        "meta_object_id": "2015-032C",
        "meta_epoch": "2025-12-04T07:49:46.756704",
        "meta_mean_motion": 14.85412293,
        "meta_eccentricity": 0.00052656,
        "meta_inclination": 97.6811,
        "meta_ra_of_asc_node": 208.8903,
        "meta_arg_of_pericenter": 357.7387,
        "meta_mean_anomaly": 2.3804,
        "meta_ephemeris_type": 0,
        "meta_classification_type": "U",
        "meta_norad_cat_id": 40717,
        "meta_element_set_no": 999,
        "meta_rev_at_epoch": 56098,
        "meta_bstar": 0.00015836254,
        "meta_mean_motion_dot": 1.313e-05,
        "meta_mean_motion_ddot": 0,
        "tle_line1": "1 40717U 15032C   25338.32623561  .00001313  00000+0  15836-3 0  9992",
        "tle_line2": "2 40717  97.6811 208.8903 0005265 357.7387   2.3804 14.85412293560985"
      },
      "geometry": {
        "type": "Point",
        "coordinates": [
          -24.471931933375238,
          -80.48205664889439
        ]
      }
    }
  ]
}